Company Name,Name,Phone Number,Email Address,Products Available,Address
A.C.Care & Marketing,Mr.V.Suresh Babu,9443138540,accaremarketing@gmail.com,"Split AC, Cassette AC, Floor Standing, Ductable AC, Packaged AC","157, Avinashi Main Road, Opp. SAP Theatre, Avinashi Main Road, Tirupur, Tamil Nadu - 641603"
A.R.A.S. Appliances Pvt Ltd,R K Suresh,9894240101,aprasad@arasappliances.com,"Split AC, Cassette AC, Floor Standing, VRV, Ductable AC, Packaged AC","No.-329-331, Chinnasamy Road, New, Sidhapudur, Coimbatore, Tamil Nadu - 641044"
Aadarsh Aircon,R. Subash Chandran,9841078311,sales.aadarshaircon@gmail.com,"Split AC, Cassette AC, Floor Standing, Ductable AC, Packaged AC","No 96 Kundrathur Main Road Vigneshwara Nagar Near SV Mahal, Porur, Chennai, Tamil Nadu - 600116"
Aadarsh Aircon,,9841078311,sales.aadrashaircon@gmail.com,"Split AC, Cassette AC, Floor Standing, Ductable AC, Packaged AC","4/2 New No.9, Rajambal Street T Nagar, Near Tirupathi Temple, Chennai, Tamil Nadu - 600017"
Ac.Com,Mr. B Raja Sekar,9176611368,info@chennaiac.com,"Split AC, Cassette AC, Floor Standing, Ductable AC, Packaged AC","12/102,Ground Floor, Sona Complex, 52nd St 7th Avenue, Ashok Nagar, Chennai, Ashok Nagar, Chennai, Tamil Nadu - 600083"
Ace Cooling Systems Pvt Ltd,M Nagarajan,9840780550,acecoolsystems@yahoo.co.in,"Split AC, Cassette AC, Floor Standing, VRV, Ductable AC, Packaged AC","Plot No. 9/1, Pillaiyar Koil Street ( Extn ), Nesapakkam, K K Nagar ( West ), Chennai, Tamil Nadu - 600078"
Air Cool,"Mr.A.Abdul Wahab, -",9443358142,aircooltvl@yahoo.co.in,"Split AC, Cassette AC, Floor Standing, VRV, Ductable AC, Packaged AC","7B, Tirunelveli,, Madurai Road, Tirunelveli, Tamil Nadu - 627001"
Air Freeze Corporation,Mr Ernest Samuel Dayanand,9884008774,sam@airfreezecorp.com,"Split AC, Cassette AC, Floor Standing, Ductable AC, Packaged AC","135,Velachery Road, Little Mount, Saidapet, Saidapet, Chennai, Tamil Nadu - 600015"
Air Sakthi,Mr.K.Sundari,044-28588132,airsakthi_kumar@yahoo.co.in,"Split AC, Cassette AC, Floor Standing, Ductable AC, Packaged AC","No.4, Marshalls Road, Egmore, Chennai, Tamil Nadu - 600008"
Aircon Refrigeration,Mr. Suresh Kumar,7603946405,mailto:airconsuresh.s@gmail.com,"Split AC, Cassette AC, Floor Standing, VRV, Ductable AC, Packaged AC","89-A, Puthumariamman Kovil Street, Durugam Road,, Kallakurichi, Tamil Nadu - 606202"
Aircontrol Engineers,Mr. Saravanan,9788505743 / 9944534393,mailto:saranaircontrolengineers@gmail.com,"Split AC, Cassette AC, Floor Standing, VRV, Ductable AC, Packaged AC","No 1/7, Thiruvidaimaruthur Road,, Ullur, Kumbakonam, Tamil Nadu - 612001"
Aircontrol System,Mr. Suhael Ahmed,9840258514,aircontrols100@yahoo.com,"Split AC, Cassette AC, Floor Standing, Ductable AC, Packaged AC","New No. 5/1, Raja Annamalai Road, Purasawalkam, Chennai, Tamil Nadu - 600084"
Airmed Marketing Services Pvt.Ltd,"Mr.Gopalakrishnan, Mr.Prakash",9840786208/9840896160,"airmedmarketing@yahoo.com, ammspl@yahoo.co.in","Split AC, Cassette AC, Floor Standing, Ductable AC, Packaged AC","No.-154, Arcot Road,,, Kodambakkam, Chennai, Tamil Nadu - 600024"
ALV TRADER,K.L. Alagurajan,9894644373,alvtradertrichyindia@yahoo.co.in,"Split AC, Cassette AC, Floor Standing, Ductable AC, Packaged AC","C-135, 5TH CROSS EAST, THILLAI NAGAR,, Thillai Nagar, Trichy, Tamil Nadu - 620018"
Ambigai Air Conditioners,Mr Raja Sekaran,9843050440,ambigaiac2k@gmail.com,"Split AC, Cassette AC, Floor Standing, Ductable AC, Packaged AC","184 North Veli Street, North Veli Street, Madurai, Tamil Nadu - 625001"
Ammu Solutions,Puma Maheshwari,9841024475,ammusolutions@hotmail.com,"Split AC, Cassette AC, Floor Standing, Ductable AC, Packaged AC","No : 122/3 K.G Nanmai Nagar Santhanam Nagar, Madurai, Chennai, Tamil Nadu"
Apple Air System Pvt Ltd.,,9840611449/9840611322/9840311338,sales@appleairsystem.com,"Split AC, Cassette AC, Floor Standing, Ductable AC, Packaged AC","Daikin Solution Plaza, No:32, Jawaharlal Nehru Road, Koyambedu, Chennai, Tamil Nadu - 600107"
Apple Air System Pvt. Ltd.,R . Prema,9840711669/9884926660,appleairsystem@gmail.com,"Split AC, Cassette AC, Floor Standing, VRV, Ductable AC, Packaged AC","No.26/16, Koyambedu, Sival Koil Street, Chennai, Tamil Nadu - 600107"
AR. A.S. Appliances Pvt Ltd,R K Suresh,9894200106/9894200803,madurai@arasappliances.com,"Split AC, Cassette AC, Floor Standing, Ductable AC, Packaged AC","35/1, Samayanallur Road, Vilangudi, Madurai, Tamil Nadu - 625018"
Arctic Comfort Solutions,S Murugan,9841345569,arctic.comfort@yahoo.co.in,"Split AC, Cassette AC, Floor Standing, Ductable AC, Packaged AC","No 2/81, Sadayappan Street, Saidapet, Chennai, Tamil Nadu - 600015"
Best Comfort System,"Mr.M.Somasundaram, Mrs.S.Annapoorani",9442211019/9842267659,bestcomfort1@yahoo.co.in,"Split AC, Cassette AC, Floor Standing, VRV, Ductable AC, Packaged AC","1/6, Stanes Road, III Street,, Odakkadu, Tirupur, Tamil Nadu - 641602"
Bharath Electronics &amp; Appliances,"Mr.R.Raja Ravi Chandran, Mr.R.Arul Kumar",9842244323,beaindia.in@gmail.com,"Split AC, Cassette AC, Floor Standing, Ductable AC, Packaged AC","383, 100 Ft. Road, - 12,, Gandhipuram, Coimbatore, Tamil Nadu - 641012"
Blue Sky Airconditioning,Mr K Yoganathan,9176932477,blueairconditioning@gmail.com,"Split AC, Cassette AC, Floor Standing, VRV, Ductable AC, Packaged AC","No 4/39, West Mambalam, Kavarai Street, Chennai, Tamil Nadu - 600033"
C Square HVAC Engineering,Mr. Arun Kumar,9095606006,csquarrehvacengineering@gmail.com,"Split AC, Cassette AC, Floor Standing, Ductable AC, Packaged AC","Meyyanur Byepass, ARRS Multiplex Road, Opp to Iplanet Showroom, New Bus Stand, Salem, Tamil Nadu - 636004"
Cima Cool Systems PVT LTD,,24910236,,"Split AC, Cassette AC, Floor Standing, Ductable AC, Packaged AC","New N045/Old No 22, 4th Lane, 1st cross, shastri Nagar Telephone Exchange, Adyar, Chennai, Tamil Nadu - 600020"
Clima Cool Systems Pvt.Ltd,A. Radhakrishnan,,"clima.chennai@gmail.com, climaacool@gmail.com","Split AC, Cassette AC, Floor Standing, Ductable AC, Packaged AC","New No 45 / Old No 22,4th Lane, 1st Cross, Shastri Nagar, Behind Telephone Exchange,,, Adyar, Chennai, Tamil Nadu - 600020"
Cold Airconditioning Private Limited,"Mr.S.Noble, Mr.R.Ramkumar",8056458945,,"Split AC, Cassette AC, Floor Standing, Ductable AC, Packaged AC","No : 23A, Distillary Road, Vadasery, Nagercovil Kanyakumari, Vadasery, Nagercoil, Tamil Nadu - 629001"
Cold Point Pvt Ltd,Manikandan,95662 00587,sales@coldpoint.in,"Split AC, Cassette AC, Floor Standing, VRV, Ductable AC, Packaged AC","221 Madhavaram High Road (near Brindha Theatre), Perambur, Chennai, Tamil Nadu - 600011"
Cold Point Pvt Ltd,"Manikandan, D Ramesh Babu",9566200587/9840090038,"sales@coldpoint.in, projects@coldpoint.in","Split AC, Cassette AC, Floor Standing, VRV, Ductable AC, Packaged AC","221 Madhavaram High Road (near Brindha Theatre), Perambur, Chennai, Tamil Nadu - 600011"
Conquer Cooling Systems,U. Gowtham,7708000667/7397747531,conquercoolingsystems@gmail.com,"Split AC, Cassette AC, Floor Standing, VRV, Ductable AC, Packaged AC","201/129, Arihant Shloka Appt, G.4, 7th Street, secretariat colony, Kilpauk, Chennai, Tamil Nadu - 600 010"
Cool Care Solutions,"Mr. M. Ashok Kumar, Mr. R. Sathes Babu",9842739834,coolcaresolutions@gmail.com,"Split AC, Cassette AC, Floor Standing, Ductable AC, Packaged AC","8, Saraswathy Street, Advaitha Ashram Road, Opp. New Bus Stand, Salem, Tamil Nadu - 636004"
Cool Max,P. Kameswaran,9841251880,coolmaxchennai@gmail.com,"Split AC, Cassette AC, Floor Standing, VRV, Ductable AC, Packaged AC","22-A, A.S.K. Nagar Main Road, (Near N.G.O. Colony Bus Stand), Adhambakkam, Chennai, Tamil Nadu - 600088"
Cool N Cool,Mr. Prakash,9443628789/9487428789,,"Split AC, Cassette AC, Floor Standing, VRV, Ductable AC, Packaged AC","NO:64, Thiruvoodal Street, OPP: Mannu Pillai Nagar, Tiruvannamalai, Tiruvannamalai, Tamil Nadu - 606601"
Cool World,Mr. Gopi,9600388551/9600388550,coolworldnkl@yahoo.com,"Split AC, Cassette AC, Floor Standing, Ductable AC, Packaged AC","No. 9, Covai Road South, Inamkarur Centre, Karur, Tamil Nadu"
Cool World,"Mr.K.Tamilselvan, Mr.K.Venkatachalam",9600388552/9600388551,coolworldnkl@yahoo.com,"Split AC, Cassette AC, Floor Standing, VRV, Ductable AC, Packaged AC","27, Ramajeyam Building, Near SBI,, Dr. Sankaran Road, Namakkal, Tamil Nadu"
Deep Cool,V.Panneer Selvam,9841023729,deepcool99@hotmail.com,"Split AC, Cassette AC, Floor Standing, Ductable AC, Packaged AC","74/3, 10th Avenues, TNHB Complex, Ashok Nagar, Chennai, Tamil Nadu - 600083"
Dewpoint Engineers,K.Sundaravadivel,9841034154,sundar@dewpointengg.in,"Split AC, Cassette AC, Floor Standing, VRV, Ductable AC, Packaged AC","New No.6, Old No.27, 16th Street, Ashok Nagar, Chennai, Tamil Nadu - 600083"
Diamonds Cool,Sheik Mohamed,9865642530,diamondscool@yahoo.com,"Split AC, Cassette AC, Floor Standing, Ductable AC, Packaged AC","No: 9/897, Mela Thalaiyoothu, Satham Nagar, Tirunelveli, Tamil Nadu - 627357"
Electronika Sales Pvt Ltd,Suneet Hasija,9884236000,suneet@electronikasales.com,"Split AC, Cassette AC, Floor Standing, Ductable AC, Packaged AC","No 16/22, Narasinghpuram Street, Mount Road, Chennai, Tamil Nadu - 600002"
ELKINS AIRCONDITION TECHNOLOGY,ELKINS AIRCONDITION TECHNOLOGY,98411 47809,elkinsairtechnology@yahoo.com,"Split AC, Cassette AC, Floor Standing, Ductable AC, Packaged AC","New No.132, Old No.239, Royapettah High Road, Royapettah, Chennai, Tamil Nadu - 600014"
Entech HVAC Solutions,"Mohan Thomas, V Sridhar",9840992413,entechhvac@gmail.com,"Split AC, Cassette AC, Floor Standing, VRV, Ductable AC, Packaged AC","No.51A, I Floor (South Wing), Pillayar Koil Street, Jafferkhanpet, Chennai, Tamil Nadu - 600083"
Erode Aircomfort System,"Mr.S.Jaganathan, N.Elangovan",9789493522/9843163522,"aircomforterode@gmail.com, jaganathanerode@rediffmail.com","Split AC, Cassette AC, Floor Standing, Ductable AC, Packaged AC","N0.4 P.S.K Towers, V.S.P Cornor Chinnamuthu Main Street, E.K VALASU, Nasiyanoor Road,, Karugalpalayam, Erode, Tamil Nadu - 638011"
Everest Airconditioning Co.,A.Khadar Basha,9940057499,everestaco@yahoo.com,"Split AC, Cassette AC, Floor Standing, Ductable AC, Packaged AC","28/81, Millers Road,, Kilpauk, Chennai, Tamil Nadu - 600010"
Freeze Air Cools,S Suresh,9003068002,freezeaircools@yahoo.in,"Split AC, Cassette AC, Floor Standing, Ductable AC, Packaged AC","New No 58 (Old No 45), Puspha Nagar, Main Road, Nungambakkam, Chennai, Tamil Nadu - 600034"
Gee Engineering,G. Vijay Divakar,9047470707,"geeeng@rediffmail.com, geeengg@gmail.com","Split AC, Cassette AC, Floor Standing, VRV, Ductable AC, Packaged AC","68-N, Tamil Sangam Road, Madurai, Tamil Nadu - 625001"
Glacier Air Systems Pvt. Ltd.,"S.M.S. Salahuddin, Ashraf A.R. Buhari",9841020089,gass_ogen@yahoo.co.in,"Split AC, Cassette AC, Floor Standing, Ductable AC, Packaged AC","No.204, II Floor, Real Enclave, 43, Josier Street, Nungambakkam, Chennai, Tamil Nadu - 600034"
GREEN SNOW ENGINEERING ( P ) LTD,Sathish Kumar,9884691314/9551534353/9176610604,greensnowengg@gmail.com,"Split AC, Cassette AC, Floor Standing, Ductable AC, Packaged AC","F1, 9&amp;10, ROOPA RESIDENCE, V.M. STREET, ROYAPETTAH, Chennai, Tamil Nadu - 600014"
Green Snow Engineering (p) Ltd,,,,"Split AC, Cassette AC, Floor Standing, VRV, Ductable AC, Packaged AC","No.4/2, Sherfudeen Street, Choolaimedu, Chennai, Tamil Nadu - 600094"
Green Wave,Vikram Mehra,9811697469,vikram@greenwave.ws,"Split AC, Cassette AC, Floor Standing, Ductable AC, Packaged AC","2D, Kothi Apartments, College Road, Nungambakkam, Chennai, Tamil Nadu"
Innovative Aircon Pvt. Ltd.,"U . Saraswathi, M . Gnanananthan",9444406744/9444406742,innovativeaircon@gmail.com,"Split AC, Cassette AC, Floor Standing, VRV, Ductable AC, Packaged AC","No.146/8, Classic Appartments, Mugappair Road, Thirumangalam, Chennai, Tamil Nadu - 600040"
Intercool Systems,R. Gopinath,9449010262,intercoolsystems.hsr@gmail.com,"Split AC, Cassette AC, Floor Standing, Ductable AC, Packaged AC","Door No 58, Shop No 06, Vinayaka Complex, Bangalore Road, Hosur, Tamil Nadu - 635109"
Jayam &amp; Co.,S . Jayaprakash,9840031310 / 9840031310,jayamandco@gmail.com,"Split AC, Cassette AC, Floor Standing, Ductable AC, Packaged AC","AA-147, 3rd Avenue, Anna Nagar, Chennai, Tamil Nadu - 600040"
Kader &amp; Kader Marketing Pvt Ltd,,,,"Split AC, Cassette AC, Floor Standing, Ductable AC, Packaged AC","T.s. No.3/2-b, D.no. 6-a, I Floor, Selvam Nagar, M.c. Road, Thanjavur, Tamil Nadu - 613004"
Kader &amp; Kader Marketing Pvt. Ltd.,"Mr.M.Mohamed Ibrahim, M Safarullah",9443134847,kaderkaderpvtltd@yahoo.com,"Split AC, Cassette AC, Floor Standing, Ductable AC, Packaged AC","T.S. No.3/2-B, D.No. 6-A, I Floor, Selvam Nagar, M.C. Road, Thanjavur, Tamil Nadu - 613004"
Krish Engineering,,9176633325,Krishengineering.ke@gmail.co,"Split AC, Cassette AC, Floor Standing, VRV, Ductable AC, Packaged AC","No: 2B, Second Floor, Jasmine Street, Jasmine Street, Chennai, Tamil Nadu - 600125"
Lakshmi Distributors,"S . Saravana Kumar, S . Subramaniam / S.Sharme",9994999566,lcsaro@rediffmail.com,"Split AC, Cassette AC, Floor Standing, Ductable AC, Packaged AC","155/C46A,, Rajaram Nagar, Salem, Tamil Nadu - 636007"
Limra Engineering,Mohammed.S,9677211575,limrasales@gmail.com,"Split AC, Cassette AC, Floor Standing, VRV, Ductable AC, Packaged AC","No:22/47, Wuthukattan Street, Perimedu, Chennai, Tamil Nadu - 600003"
M/s Mukil Air Systems,N.Uma Sankar,9843855003,mukilairsystems@gmail.com,"Split AC, Cassette AC, Floor Standing, VRV, Ductable AC, Packaged AC","272, West Masi Street, Madurai, Tamil Nadu - 625001"
M/s Sunder Electronics,,+91 9842324846,,"Split AC, Cassette AC, Floor Standing, Ductable AC, Packaged AC","No:5, Infantry Road, Vellore, Tamil Nadu - 632001"
M/s. AC Cooling Solutions,MC.George,6382156714/9843248049/9585538049,accoolingsolutionsvk@gmail.com / mcgeorgesvk@gmail.com,"Split AC, Cassette AC, Floor Standing, Ductable AC, Packaged AC","111/I, Gandhi Road, Near Busstand, Sivakasi, Tamil Nadu - 626189"
M/S. Airomech Systems Pvt Ltd,Dinesh,9840728619,dinesh@airomech.in,"Split AC, Cassette AC, Floor Standing, Ductable AC, Packaged AC","No. 32, Sadayappan Street,, Mandaveli, Chennai, Tamil Nadu - 600028"
M/S. Airomech Systems Pvt Ltd,Dinesh,9840728619,dinesh@airomech.in,"Split AC, Cassette AC, Floor Standing, Ductable AC, Packaged AC","No. 49/25, 85th Street,, Ashok Nagar, Chennai, Tamil Nadu - 600083"
M/S. Airomech Systems Pvt Ltd,Sam,9944987428,info@airomech.in,"Split AC, Cassette AC, Floor Standing, Ductable AC, Packaged AC","No. 12, Sr Subbian Street,, Rathinapuri, Coimbatore, Tamil Nadu - 641027"
M/s. Arun Electronics,S.Surianarayanan,9843077955 / 0452 2628321,arunsuri2009@gmail.com,"Split AC, Cassette AC, Floor Standing, Ductable AC, Packaged AC","No : 398, North Masi Street, Northmasi Street, Madurai, Tamil Nadu - 625001"
M/s. Pooja Aircons LLP,,0413-2200257,jayganesh@poojaaircons.com,"Split AC, Cassette AC, Floor Standing, Ductable AC, Packaged AC","No.303-307, Maraimalai Adigal Salai, Nellithope, Pondicherry, Pondicherry, Tamil nadu - 605005"
M/s. Rehoboth Traders,A.Jesuraja,9677880799 / 8682954599,rehobothtraders.maas@gmail.com,"Split AC, Cassette AC, Floor Standing, Ductable AC, Packaged AC","No : 29, KR Colony, Sakthinagar, KR Colony, Tenkasi, Tamil Nadu - 627859"
M/S. Sree Hi-Tech Refrigeration &amp; Electricals,,9786665126,srehitechairconditioners@gmail.com,"Split AC, Cassette AC, Floor Standing, Ductable AC, Packaged AC","No:20 C, Narasimapuram, Middle Street, Karur, Karur, Tamil nadu - 639001"
Mahesh Enterprises,Mr. Selvakumar,9842154154,,"Split AC, Cassette AC, Floor Standing, Ductable AC, Packaged AC","No : 16, Vellakovil Road, Backside Galaxy Hospital, Vannarpettai, Tirunelveli, Tamil Nadu - 627003"
Metro Airconn,P.H.Eashwar Prasad,9840425665,"metroaircon@airtelmail.in, metro_projects@yahoo.com","Split AC, Cassette AC, Floor Standing, Ductable AC, Packaged AC","No. 10/1, Subbaraya Avenue, C.P. Ramasamy Road, Alwarpet, Chennai, Tamil Nadu - 600018"
MGB Electronics,Mr.B.Annapoorani,9688277770,durai@mgbgroups.com,"Split AC, Cassette AC, Floor Standing, Ductable AC, Packaged AC","No.7, Municipal Office road, Tirupur, Tamil Nadu - 641604"
MGL AC World,G. Nedumaran,9842335816,mglacworld@gmail.com,"Split AC, Cassette AC, Floor Standing, Ductable AC, Packaged AC","70, Ragavendra Nagar, 1st Street Sathuvachari, Vellore, Tamil Nadu - 632009"
Ms. Aadarsh Aircon,R. Subash Chandran,9841078311,actechlg@vsnl.com,"Split AC, Cassette AC, Floor Standing, Ductable AC, Packaged AC","No: 136, Maruthamalai Road, Periyar nagar, Maruthamalai Road, New Indian Bank, Vadavalli, Vadavalli Coimbatore, Coimbatore, Tamil Nadu - 641041"
Mukil Air Systems,N.Umasankar,9843855003/9965179519,mukilairsystems@gmail.com,"Split AC, Cassette AC, Floor Standing, VRV, Ductable AC, Packaged AC","272, West Masi Street, Madurai, Madurai, Tamil Nadu - 625001"
N.R Air Services,Y. Ramesh,+91 9176672666,nrairservices@gmail.com,"Split AC, Cassette AC, Floor Standing, Ductable AC, Packaged AC","No.2/16, 21st street, 5th Avenue, Ashok nagar, Chennai, Tamil Nadu - 600083"
N.R. Air Services,Y.Ramesh,9176672666,nrairservices@gmail.com,"Split AC, Cassette AC, Floor Standing, Ductable AC, Packaged AC","2/16, 21st Street, Ashok Nagar, Chennai, Tamil Nadu - 600083"
New Maris Engineering,Mr P Pancha Pandavar,9715338359/8807484964,newmarishvac@gmail.com,"Split AC, Cassette AC, Floor Standing, Ductable AC, Packaged AC","93/16,Annaisathiya Nagar,5th Street, M.M.D.A,Arumbakkam, Arumbakam, Chennai, Tamil Nadu - 600106"
Nitech Engineering Pvt Ltd,Syed Dhamed Kabeer,9677822756,kabeer@nitechengg.com,"Split AC, Cassette AC, Floor Standing, VRV, Ductable AC, Packaged AC","Old No 3, New 9, Vigneswara Apartments, Flat No 8, 3rd Floor, Periyar Road, T Nagar, Chennai, Tamil Nadu - 600017"
Orbit,V.Ravishankar,9840060246/9444918482,orbitravi@yahoo.com,"Split AC, Cassette AC, Floor Standing, Ductable AC, Packaged AC","No.32, Arcot Road, (Opp. National Theatre), Virugambakkam, Chennai, Tamil Nadu - 600092"
Orion Airconditioners," A.R. Manoj Kumar, A.R. Vinod kumar",9842292925/9842033361,"orionac2000@yahoo.co.in, orionaccbe@yahoo.in","Split AC, Cassette AC, Floor Standing, Ductable AC, Packaged AC","No 10 V N Complex, Nataraja Theatre Road, Tirupur, Tamil Nadu - 641604"
Perfect Engineering Solution,Mr Syedimiran,9994332981,perfectengineeringltd@gmail.com,"Split AC, Cassette AC, Floor Standing, VRV, Ductable AC, Packaged AC","N0 501, Sarathy Complex, Shop No 2, Velacherry Main Road, East Tambaram, Chennai, Velacherry Main Road, East Tambaram, Chennai, Tamil Nadu - 600059"
Pooja Aircons LLP,,9840728719/9840041100,jayganesh@poojaaircons.com,"Split AC, Cassette AC, Floor Standing, VRV, Ductable AC, Packaged AC","No.63, GST Road Irumbuliyur, West Tambaram, Chennai, Tamil Nadu - 600045"
Pooja Aircons LLP,,9840728719/9840041100,jayganesh@poojaaircons.com,"Split AC, Cassette AC, Floor Standing, Ductable AC, Packaged AC","#303-307 Marai Malai Adigal Salai Nelli Thope, Pondicherry, Pondicherry, Tamil Nadu - 605005"
Premier Climate Controls Pvt. Ltd.,Jaweed Hussain,9841098562,pccchennai@hotmail.com,"Split AC, Cassette AC, Floor Standing, Ductable AC, Packaged AC","1/I, 23rd Cross Street, Adyar, Indira Nagar, Chennai, Tamil Nadu - 600020"
Raaj Airconditioner Service,,7550044909/7550077221,raajairconditionerservice@gmail.com,"Split AC, Cassette AC, Floor Standing, Ductable AC, Packaged AC","173 Velachery Main Road Landmark: Nearby Reliance trends Showroom, Pallikaranai, Chennai, Tamil Nadu - 600100"
Raaj Airconditioner Service,,7200333324,raajairconditionerservice@gmail.com,"Split AC, Cassette AC, Floor Standing, Ductable AC, Packaged AC","No 13, Lakshmi Nagar Arcot Road, Porur Landmark: Opp to Naidu Hall Showroom, Porur, Chennai, Tamil Nadu - 600116"
Radhakrishna &amp; Company,,9894740004/9894711277/9894740112,radhakrishnaandco@gmail.com,"Split AC, Cassette AC, Floor Standing, Ductable AC, Packaged AC","956/1, Avanashi Road, Dhandumariamman Temple, Coimbatore, Tamil Nadu"
Rajan &amp; Co.,T Rajan,9443133615,newrajanandco@yahoo.com,"Split AC, Cassette AC, Floor Standing, Ductable AC, Packaged AC","50,Court Road, Court Road, Nagercoil, Tamil Nadu - 629001"
Rakhi Wala,Ashok Sanghvi,9940330003,rakhiwala@hotmail.com,"Split AC, Cassette AC, Floor Standing, Ductable AC, Packaged AC","100, N.S.C. Opp. Patni Plaza,, Bose Road, Chennai, Tamil Nadu - 600079"
Rathna Cools Pvt. Ltd.,"K.Vijay, K.V.Subramanian",9340066616,rathnafanhouse@gmail.com,"Split AC, Cassette AC, Floor Standing, Ductable AC, Packaged AC","36/1, Rajabather Street,, T. Nagar, Chennai, Tamil Nadu - 600017"
Redefine Marketing,George Thomos,9497759799,talk@redefinetomorrow.com,"Split AC, Cassette AC, Floor Standing, Ductable AC, Packaged AC","KPXI/444C, Chenthipoor, Nr. Kerala, Seemamula Jn. Vattapara, Thiruvananthapuram, Tamil Nadu - 695028"
Reliance Digital Retail Ltd.,Sivaprakasam Viswanatharao,9500073331,sivaprakasam.viswanatharao@ril.com,"Split AC, Cassette AC, Floor Standing, Ductable AC, Packaged AC","RDRL Digital Store Gnd &amp; 1st Flr New No 47 Mount Road (Old no 11/A1 and 11/A2), Meco House, Annasalai, Chennai, Tamil Nadu - 600002"
Reliance Digital Retail Ltd.,Ganesh Janarthana,9600013437,ganesh.janarthanan@ril.com,"Split AC, Cassette AC, Floor Standing, Ductable AC, Packaged AC","RDRL Brookefields Plaza, No.61-71, Brookefields Plaza, Krishnaswamy Road, Coimbatore, Tamil Nadu - 641001"
Reliance Digital Retail Ltd.,Jaganmohan Nachimuthu,9500073332,jaganmohan.nachimuthu@ril.com,"Split AC, Cassette AC, Floor Standing, Ductable AC, Packaged AC","RDRL Anna Nagar Store, Plot C-8 Anna Nagar, Rx No 44/Part Of Periakundal Village, Madras Dsitrict 3Rd Avenue, Anna Nagar (E), Chennai, Tamil Nadu - 600040"
Reliance Digital Retail Ltd.,Murali Kaleeswaran,9600087341,murali.kaleeswaran@ril.com,"Split AC, Cassette AC, Floor Standing, Ductable AC, Packaged AC","RDRL Mogappair Store Plot No.3 PC11, Near Bus Depo, Mogappair West, Chennai, Tamil Nadu"
Reliance Digital Retail Ltd.,Rajasekharan,9043099109,rajasekaran.devarajan@ril.com,"Split AC, Cassette AC, Floor Standing, Ductable AC, Packaged AC","Vishaal De Mal Store, Anchor Shop, 3rd Floor Door No.31, Chokkikulam village, North Taluk, Gokale Road, Madurai, Tamil Nadu - 625002"
S.C. Shah &amp; Company,Bhavesh V. Shah,9884048840,shahs.chennai@gmail.com,"Split AC, Cassette AC, Floor Standing, Ductable AC, Packaged AC","518, Anna Salai, Teynampet, Chennai, Tamil Nadu - 600018"
Sai Aircon,Mr. P.R. Jagdesh,9841065635,saiaircon.jagadish@gmail.com,"Split AC, Cassette AC, Floor Standing, Ductable AC, Packaged AC","No. 202, TTK Road, Alwarpet, Chennai, Tamil Nadu - 600018"
Sai Cool Zone,C Sudhakaran,9986388201,sczchennai2014@gmail.com,"Split AC, Cassette AC, Floor Standing, Ductable AC, Packaged AC","No 34, Door No 4/146, Palandi Amman Koil Street Kancheepuram, Rajiv Gandhi Salai, Egattur Village, Egattur, Tamil Nadu - 603103"
Sakthi Cool Point,S.Ranjith,9841623325,sakthicoolpoint@gmail.com,"Split AC, Cassette AC, Floor Standing, Ductable AC, Packaged AC","6/19,Thiruvalluvar Street, Ekkattuthangal, Ambal nagar, Chennai, Tamil Nadu"
Samutra Enterprises,Mr. P.Joyson,9626429430 / 9600722446,samutraenterprises@gmail.com,"Split AC, Cassette AC, Floor Standing, VRV, Ductable AC, Packaged AC","#35, Muruganpalayam Main Road, Kumar Nagar, 1st Street, Muruganpalayam, Tirupur, Tamil Nadu - 641603"
Saravanaa Aircon Pvt Ltd,,9843051114,saravanan@saravanaa.com,"Split AC, Cassette AC, Floor Standing, VRV, Ductable AC, Packaged AC","No : 345/1 12th East Street, East Street, CHENNAI, Tamil Nadu - 600041"
Sathya Agencies (P) Ltd.,J.Johnson,9894034985,info@sathyaindia.com,"Split AC, Cassette AC, Floor Standing, Ductable AC, Packaged AC","370, Palayam Cottai Road, Thoothukudi, Tamil Nadu - 628002"
Sharp Troniics,H.Manish Thakkar,9003311100,sharptroniics@eth.net,"Split AC, Cassette AC, Floor Standing, Ductable AC, Packaged AC","II Floor, (Opp. To TVS), 115B-1A, Omalur main Road, Salem, Tamil Nadu - 636007"
Shenbagam Airconditioners,"Mr.C. Jawahar, Mrs. J.Sumathi",9443283637,"araspvpv.tnv.act1@marutidealers.com, shenbagamaras@sancharnet.in","Split AC, Cassette AC, Floor Standing, Ductable AC, Packaged AC","10-D, Trivandrum Road, Tirunelveli, Palayamkottai, Tirunelveli, Tamil Nadu - 627002"
Shri Meenakshi Fan House Pvt. Ltd.,"C.N.Saravanan, S.Abirami",9894774045/9944434457,smfh@airtelmail.in,"Split AC, Cassette AC, Floor Standing, Ductable AC, Packaged AC","282, West Masi Street, Madurai, Tamil Nadu - 625001"
Shri Vignesh Airconditioning Engineers Private Limited,N Kanagaraaja,9840784632/9810784632/9003115552,"kanagaraja28@gmail.com, sales@shrivignesh.com","Split AC, Cassette AC, Floor Standing, VRV, Ductable AC, Packaged AC","No.41/16, Chetty Street, Saidapet, Chennai, Tamil Nadu - 600015"
Sri Air Freeze,Mr Senthil Kumar,9884313634,sriairfreeze@yahoo.in,"Split AC, Cassette AC, Floor Standing, Ductable AC, Packaged AC","No 2/28 A,Swamy Vivekananda Nagar, Samayapuram Main Road, Samayapuram Road, Porur, Tamil Nadu"
Sri Cauvery Electronics,Ms B Chitra,9865125413,balaneyveli@gmail.com,"Split AC, Cassette AC, Floor Standing, Ductable AC, Packaged AC","Zahir Hussain Road, Block -10, Neyveli, Zahir Hussain Road, Neyeli, Tamil Nadu - 607801"
Sri Comfort Air Products &amp; Services,B.Kalyanaraman,8124610848,"info@sricomforts.com, nba@sricomforts.com","Split AC, Cassette AC, Floor Standing, VRV, Ductable AC, Packaged AC","7/3A, Patel Nagar, West Thambaram, Chennai, Tamil Nadu - 600045"
Sri Jayadurga Agency,Mr. Varadarajan,9443373211,,"Split AC, Cassette AC, Floor Standing, VRV, Ductable AC, Packaged AC","New no: 47A, KST Towers, North Main Street, Tiruvarur, Tiruvarur, Tamil Nadu - 610002"
Sri Jayadurga Agency,Mr. Varadarajan,9443373211,,"Split AC, Cassette AC, Floor Standing, Ductable AC, Packaged AC","No. 109-A, Mothilal Street, Kumbakonam, Kumbakonam, Tamil Nadu - 612001"
Sri Jeyalakshmi Agencies,C.KASI,9842506091,jeyalakshmi.kasi@gmail.com,"Split AC, Cassette AC, Floor Standing, Ductable AC, Packaged AC","No: 95 Palani Road, Dindigul, Chennai, Tamil Nadu - 624001"
Sri Krishna Radios &amp; Electronics,N B Gurusamy Raja,9443118231/9449228231,srikrishnaradios@gmail.com,"Split AC, Cassette AC, Floor Standing, Ductable AC, Packaged AC","No 1527/427, Tenkasi Road, Rajapalayam, Tamil Nadu - 626117"
SRI Rameshkumar Leypower,N.Murali,9600772688,srkleypower@yahoo.com,"Split AC, Cassette AC, Floor Standing, Ductable AC, Packaged AC","No. 34 - A / 10 - B, Thanjavaur Road, Tiruvarur, Tamil Nadu - 610001"
SS Air Conditioning,Mrs. Booma Mahendravarman,7373255000,ssacadmn@gmail.com,"Split AC, Cassette AC, Floor Standing, VRV, Ductable AC, Packaged AC","26, Raja Gounder Thottam, NGGO Colony,, Erode, Tamil Nadu - 638009"
SS Associates,Shankar,8508887792,cbessassociates@gmail.com,"Split AC, Cassette AC, Floor Standing, VRV, Ductable AC, Packaged AC","No: 5, 9th Street Tatabad, Coimbatore, Tamil Nadu"
Star HVAC Systems,Mr Krishna Kumar,9443228078,starhvacsystems@yahoo.co.in,"Split AC, Cassette AC, Floor Standing, Ductable AC, Packaged AC","No 22, Nellikuppam Main Road, Semmandalam, Cuddalore, Cuddalore, Tamil Nadu - 607001"
Sundar Retail Pvt Ltd,Mr.S.Ramachandran,9944417080/9944674256,sundarretail@gmail.com,"Split AC, Cassette AC, Floor Standing, Ductable AC, Packaged AC","60, Cape Road, Nagercoil, Kanyakumari Dist, Cape Road, Nagercoil, Tamil Nadu - 629001"
Sunder Electronics,V.T. Rajasekaran,9842324844/9842324846,sunderelectronics@yahoo.co.in,"Split AC, Cassette AC, Floor Standing, Ductable AC, Packaged AC","No.5, Infantry Road, Vellore, Tamil Nadu - 632001"
Tech Arena,Antony vino,9677026851,techarena.omr@gmail.com,"Split AC, Cassette AC, Floor Standing, Ductable AC, Packaged AC","Ta-Techarena, 429 Sri Vidya Avenue, Okkiyam, Thoraipakkam, Chennai, Tamil Nadu - 97"
Techno Power Combines Pvt. Ltd.,Mr. D.Rajesh,9789818444/9840398001,lpc25895@yahoo.com,"Split AC, Cassette AC, Floor Standing, VRV, Ductable AC, Packaged AC","No: 1/5, Residency Apartments, Trust Pakkam, Mandaveli, South Street, Chennai, Tamil Nadu - 600028"
Technocrat Engineers,"Ms.Sukanya Sriram, -",9841827361,technocrat.airconditioners@gmail.com,"Split AC, Cassette AC, Floor Standing, VRV, Ductable AC, Packaged AC","Plot no. 29, II Street, Ganesh Nagar, G.K. Indl. Estate,,, Alapakkam, Chennai, Tamil Nadu - 600116"
The AC Zone (P) Ltd,Rizwan Currimbhoy,9841068380/9841236142,rizwan@theaczone.com,"Split AC, Cassette AC, Floor Standing, VRV, Ductable AC, Packaged AC","New No. 27-1, Old No. 22A, Police Commissioner Office Road, Egmore, Chennai, Tamil Nadu - 600102"
Touch N Chill,Ms Regina Mary,9043014900,"mary@touchnchill.com, sales@touchnchill.com","Split AC, Cassette AC, Floor Standing, VRV, Ductable AC, Packaged AC","No 8/6,Nakeerar Street, Moolakadai, Chennai, Tamil Nadu - 600118"
Touch N Chill (Ambattur),,9.19043E+11,arun@touchnchill.com,"Split AC, Cassette AC, Floor Standing, Ductable AC, Packaged AC","No. 41, Redhills Road, Vinayagapuram, Ambattur, Ambattur, Chennai, Tamil Nadu - 600053"
Touch N Chill (Ambattur),,9.19043E+11,arun@touchnchill.com,"Split AC, Cassette AC, Floor Standing, Ductable AC, Packaged AC","No. 41, Redhills Road, Vinayagapuram, Ambattur, Ambattur, Chennai, Tamil Nadu - 600053"
Touch N Chill (Oragadam),,6382229696,,"Split AC, Cassette AC, Floor Standing, Ductable AC, Packaged AC","No.3, A-Block, Surya Devi Complex, Opposite to Renault Nissan Automotive,, Oragadam, Kanchipuram, Tamil Nadu - 602105"
Touch N Chill (RA Puram),,+91 7200720010,arun@touchnchill.com,"Split AC, Cassette AC, Floor Standing, Ductable AC, Packaged AC","Old No.92, New No.29, Greenways Road, Raja Annamalai Puram, RA Puram, Chennai, Tamil Nadu - 600028"
Touch N Chill (RA Puram),,+91 7200720010,arun@touchnchill.com,"Split AC, Cassette AC, Floor Standing, Ductable AC, Packaged AC","Old No.92, New No.29, Greenways Road, Raja Annamalai Puram, RA Puram, Chennai, Tamil Nadu - 600028"
Touch N Chill (Vadapalani),,+91 9600086121,arun@touchnchill.com,"Split AC, Cassette AC, Floor Standing, Ductable AC, Packaged AC","No.251, New No.304, Devan Towers, Arcot Road,, Vadapalani, Chennai, Tamil Nadu - 600026"
Touch N Chill (Vadapalani),,+91 9600086121,arun@touchnchill.com,"Split AC, Cassette AC, Floor Standing, Ductable AC, Packaged AC","No.251, New No.304, Devan Towers, Arcot Road,, Vadapalani, Chennai, Tamil Nadu - 600026"
Touch N Chill (Vyasarpadi),,044 43862025,,"Split AC, Cassette AC, Floor Standing, Ductable AC, Packaged AC","No. 6/8, Nakeerar Street, Vivekanandar Nagar,, Vyasarpadi, Chennai, Tamil Nadu - 600118"
U.M.Associates,"I.M Usmani, Naseem . U",9840052324,umassociates64@gmail.com,"Split AC, Cassette AC, Floor Standing, Ductable AC, Packaged AC","Old no.64, Chakkarai Street, Chennai, Tamil Nadu - 600079"
Universal Aircon,R.Selvakumar,9443212999,universal_aircon@rediffmail.com,"Split AC, Cassette AC, Floor Standing, Ductable AC, Packaged AC","No.10, Vaigai Complex, Opp. Bus Stand, Thirupapuliyur, Cuddalore, Tamil Nadu - 607002"
Universe Air Solution,Mr. Arun / Mr. Nandhakumar,9488266885 / 9500206067,universeairsolutions@gmail.com,"Split AC, Cassette AC, Floor Standing, VRV, Ductable AC, Packaged AC","No. 42, 3rd Main Road,, Ponnagar, Trichy, Tamil Nadu - 620001"
Utility projects &amp; services(p) Ltd.,Mr. Athinarayanan.S,9845109161,athi@upspl.com,"Split AC, Cassette AC, Floor Standing, Ductable AC, Packaged AC","No.5 Old No.18, East Avenue, Kesavaperumalpuram, R.A.Puram, Kesavaperulampuram, Chennai, Tamil Nadu - 600028"
Vasanth &amp; Co. ,H.Vasantha Kumar,9840033350,sm@vasanthandco.co,"Split AC, Cassette AC, Floor Standing, Ductable AC, Packaged AC","14, Railway Border 1st Street, Kaveri Nagar, Saldapet, Chennai, Tamil Nadu - 600015"
Velsons Engineers,"V Pradeep Kumar, V Vijaya Kumar",9842513149/9944045999,sales.sde@gmail.com,"Split AC, Cassette AC, Floor Standing, VRV, Ductable AC, Packaged AC","RVS &amp; Avenue, No.41, Alamelu Manga Puram, Near C.M.S.School, Ganapathy, Coimbatore, Tamil Nadu - 641006"
Venus Electronics,Mr.V.Kathiresan,9244446366,info@venusgroups.in,"Split AC, Cassette AC, Floor Standing, Ductable AC, Packaged AC","8, Pensioner Street, Palm Road, Dindigul, Tamil Nadu - 624001"
Vinayaka Electronics &amp; Enterprises,Mr. Senthil,9087122779,vinayagakarai@gmail.com,"Split AC, Cassette AC, Floor Standing, VRV, Ductable AC, Packaged AC","No 45, Balaji Nagar, 2nd Cross Kamarajar Salai, Karaikal, Tamil Nadu - 609602"
Vivek Ltd,,,,"Split AC, Cassette AC, Floor Standing, Ductable AC, Packaged AC","144,royapettah High Road, Mylapore, Chennai, Tamil Nadu - 600004"
VW HVAC Projects Pvt Ltd,Raja.P,9176666611,md@vwgroup.in,"Split AC, Cassette AC, Floor Standing, Ductable AC, Packaged AC","No : 5 Peerkankaranai, KK nagar, Chennai, Tamil Nadu - 600063"
Weather Dynamics,Mr. N. Raja,9842646475,weatherdynamics@gmail.com,"Split AC, Cassette AC, Floor Standing, VRV, Ductable AC, Packaged AC",
