Company Name,Name,Phone Number,Email Address,Products Available,Address
AC Enterprises,Mr. P Srinivasa Rao,9908230641,acenterprises181@gmail.com,"Split AC, Cassette AC, Floor Standing, Ductable AC, Packaged AC","H no.1-0-630/1, 5C, Ramnagargundu, Vidyanagar, Hyderabad, Andhra Pradesh - 500044"
Air 'n' Gas Controls,"Mr. Mohd. Yaseen Baba, Mr. Mohd. Khaja Moiddin",,airngas@yahoo.co.in,"Split AC, Cassette AC, Floor Standing, VRV, Ductable AC, Packaged AC","Door No. 47-3-17, C/01, Govinda Mansion, Opp. Gayathri Jr. College, 5th Lane, Dwaraka Nagar, Visakhapatnam, Andhra Pradesh - 530016"
Air control systems,,,aircontrols100tada@yahoo.com,"Split AC, Cassette AC, Floor Standing, Ductable AC, Packaged AC","No.3-168, Sujatha Nagar Tada Post Tada, Sripotti Srimalu, Nellore, Andhra Pradesh - 524401"
Air N Gas Controls ,"Mr.Md. Yaseen Baba, Mr.Mohd. Khaja Mohiddin",,airngas@yahoo.co.in,"Split AC, Cassette AC, Floor Standing, Ductable AC, Packaged AC","D.No. 43-14-12, Near Municipal High School,,, Railway New Colony, Visakhapatnam, Andhra Pradesh - 530016"
Aircare Engineering &amp; Systems,D Hari Shankar,,aircare.enggsystems@gmail.com,"Split AC, Cassette AC, Floor Standing, Ductable AC, Packaged AC","6-3-569/1/4/2, Dhanturi's, Somajiguda, Hyderabad, Andhra Pradesh - 500082"
Airtronics,G Pavan Kumar Reddy,9848327106,airtronics2007@yahoo.co.in,"Split AC, Cassette AC, Floor Standing, Ductable AC, Packaged AC","8-5-189, Street No.5, Mallikarjuna Colony,, Old Bowenpally, Secunderabad, Andhra Pradesh -"
Airwell Enterprises,Nagendra Prasad J,9849707272,airwellenerprises@gmail.com,"Split AC, Cassette AC, Floor Standing, Ductable AC, Packaged AC","11-11-112/2, Plot No.54, Indira Nagar, Kothapeta,, Banjara Hills, Hyderabad, Andhra Pradesh -"
Anjani Enterprises,A.V.S. Murthy,9849122276,,"Split AC, Cassette AC, Floor Standing, Ductable AC, Packaged AC","NS Raju Complex, Near II Town, P.S District. ( A. P),, W.G., Bhimavaram, Andhra Pradesh - 534202"
Bajaj Electronics,"Mr.Pavan Bajaj, Mr.Karan Bajaj",9848018143,karan.bajaj@hotmail.com,"Split AC, Cassette AC, Floor Standing, Ductable AC, Packaged AC","Near Telephone Exchange, Lakdi-Ka-Pool,,, Lakdi Ka Pool, Hyderabad, Andhra Pradesh - 500004"
Balaji Refrigeration &amp; Airconditioning Works,K.Chandra Sekhar,9704333649,,"Split AC, Cassette AC, Floor Standing, Ductable AC, Packaged AC","Shop no.1-134, Opp. Lane Shobhana Talkies,, Balanagar, Hyderabad, Andhra Pradesh - 500042"
Breeze N Freeze,G. V. V. Giri,9848194945,"breeze_frz@yahoo.co.in, accounts@bnfindia.com","Split AC, Cassette AC, Floor Standing, VRV, Ductable AC, Packaged AC","49 - 9 - 34 Vizag, Lalitha Nagar, Visakhapatnam, Andhra Pradesh - 530016"
Breeze N Freeze Engg.,"G.Vishali, Srinivasu",,breeze_frzvja@yahoo.in,"Split AC, Cassette AC, Floor Standing, Ductable AC, Packaged AC","39-1-59, Labbipeta, MG Road, Vijayawada, Andhra Pradesh - 520010"
Chill Air Con,Mr.T.Wilson Raj,,chillaircon-123@yahoo.co.in,"Split AC, Cassette AC, Floor Standing, Ductable AC, Packaged AC","#16-2-705/6/9, Bassapoa Building, Beside Chermas, Main Road,, Malakpet, Hyderabad, Andhra Pradesh - 500036"
Chill Air Engineering,D N N Ganesh,9848522999,chillairengineering@gmail.com,"Split AC, Cassette AC, Floor Standing, VRV, Ductable AC, Packaged AC","51-15-1/1, DeensCmplx, NH-5 Satyam Jn, Nakkavanipalem, Visakhapatnam, Andhra Pradesh - 530013"
Comfort Cool Refrigerators &amp; Air Conditioners,Shaik Mohammad Rafi,,comfortcooltenali,"Split AC, Cassette AC, Floor Standing, Ductable AC, Packaged AC","16/24/35, Opp.Panchamukha Anjaneya, SwamyTmpl, Guntu, Sharoff bazar, Tenali, Andhra Pradesh - 522201"
Cool Air Systems,Mohd Abdul Hallem,9246390220,coolairsystems16@gmail.com,"Split AC, Cassette AC, Floor Standing, Ductable AC, Packaged AC","H no.1202-800/402 403, Near PVNR Express High way, Piller No.54, Rathi Bowli,, Mehdipatnam, Hyderabad, Andhra Pradesh - 500028"
Cool Comforts,Mr. Hohammed Faiyazuddin,,faiyaz.coolcomforts@yahoo.com,"Split AC, Cassette AC, Floor Standing, Ductable AC, Packaged AC","Shop No. 1-10-149/1,, New Town, Mahabubnagar, Andhra Pradesh - 50900"
Cool Concepts,,,coolconcepts2014@gmail.com,"Split AC, Cassette AC, Floor Standing, VRV, Ductable AC, Packaged AC","12-1-18, Waltair Main Road, Besides Hotel Green Park,, Waltair Main Road, Visakhapatnam, Andhra Pradesh - 530002"
Cool Concepts,Ms. PS V Jayalakshmi,9848196400,repvsp@rediffmail.com,"Split AC, Cassette AC, Floor Standing, VRV, Ductable AC, Packaged AC","12-01-18, Beside Hotel Green Park, Waltair Main Road, Visakhapatnam, Andhra Pradesh - 530012"
Cool Inc,Priti Jain / Ramakrishna,9441703935,coolinc1902@yahoo.in,"Split AC, Cassette AC, Floor Standing, Ductable AC, Packaged AC","D No.47-9-10, Subhadra Complex, Shankarmatam Road, Visakhapatnam, Andhra Pradesh"
Cool Tech Enterprises &amp; Services ,,88855 35994,cooltechenterprises@Outlook.com,"Split AC, Cassette AC, Floor Standing, Ductable AC, Packaged AC","Ground Floor Door No : 2/333 Sulochanamma Hospital Street, Nawabpet, Nawabpet, Nellore, Andhra Pradesh - 524002"
Cool Tech Enterprises &amp; Services,,88855-35994,cooltechenterprises@Outlook.com,"Split AC, Cassette AC, Floor Standing, Ductable AC, Packaged AC","Ground Floor Door No : 2/333 Sulochanamma Hospital Street, ,Nawabpet, Nellore, Andhra Pradesh - 524002"
COOLMAX,,,,"Split AC, Cassette AC, Floor Standing, Ductable AC, Packaged AC","No.335/1A1, Krishna Nagar, Near Barath Petrol Bunk, Nulakapeta, Mangalagiri Road, Tadepalli Mandalam,, Vijayawada, Guntur, Andhra Pradesh - 522 501"
Cooltech Engineering,Shyam Prasad,91- 9603333359,cooltechengg2000@gmail.com.,"Split AC, Cassette AC, Floor Standing, VRV, Ductable AC, Packaged AC","Plot No:1268/A,shop No.9c Road No:63/A, Panna Complex, Jubilee Hills Check Post,, Jubilee Hills, Hyderabad, Andhra Pradesh - 500003"
Divya Agencies,Mr. K. Narasimha Reddy,9849098858,divyaagencies.nlr@gmail.com,"Split AC, Cassette AC, Floor Standing, VRV, Ductable AC, Packaged AC","28/937, Shop No. 5, VBR Estate, Beside Surya International, Wahab Pet, Nellore, Andhra Pradesh - 524003"
Divya Agencies,K Narasimha Reddy,9849098858,divyaagencies.nlr@gmail.com,"Split AC, Cassette AC, Floor Standing, VRV, Ductable AC, Packaged AC","28/937, S.No.5, VBR Estate, Wahab pet, Besides Surya International,, Wahabpet, Nellore, Andhra Pradesh - 524003"
Freeze Point,"Mr.Rama Chandra Rao Alla., Mr.A.V.Srinivas Rao",,daikinakp@gmail.com,"Split AC, Cassette AC, Floor Standing, Ductable AC, Packaged AC","Alla Bhavan,,, R.T.C. Complex Road, Anakapalle, Andhra Pradesh - 531001"
Ganesh Marketing,G Ravi Kumar,,gmc.kadapa@gmail.com,"Split AC, Cassette AC, Floor Standing, Ductable AC, Packaged AC","D.No:19/201-1, Madras Road, Kedapa, Kadapa, Andhra Pradesh - 516001"
Green Air Engineering ,Kakarlapudi Uma Shankar,8333010676,greenairengineering@yahoo.com,"Split AC, Cassette AC, Floor Standing, Ductable AC, Packaged AC","Shop No 2, Door No 51-15-1&amp;1/1, Opp. Tech Mahindra, Nakkavanipalem, Visakhapatnam, Andhra Pradesh - 530013"
Hanuman Enterprises,"N.Ch. Anil Kumar, K.V.L. Koteshwara Rao",,hanumanenterpriseshyd@gmail.com,"Split AC, Cassette AC, Floor Standing, Ductable AC, Packaged AC","Ground Floor, 6-3-788/A/9, Durganagar,, Ameerpet, Hyderabad, Andhra Pradesh - 500016"
Heat Crafts Engineer's,S.Vidya Sagar,9848153254,sripathi.vidyasagar@yahoo.com,"Split AC, Cassette AC, Floor Standing, Ductable AC, Packaged AC","2-4-533, (A.P.), Ram Gopalpet, Secunderabad, Andhra Pradesh - 500003"
Hi-Tech York Systems,K Sambasiva Rao,,htysindia@gmail.com,"Split AC, Cassette AC, Floor Standing, Ductable AC, Packaged AC","Plot no.-3, Plaza Sadan, Thokatta, Secunderabad, Andhra Pradesh"
Himani Cool Home,,9394222399,himanicoolhome@yahoo.in,"Split AC, Cassette AC, Floor Standing, Ductable AC, Packaged AC","D No.50-81-31, Santhipuram,, Seethammapeta Main Road, Visakhapatnam, Andhra Pradesh - 530016"
Himani RAC Technologies Pvt. Ltd.,P Suman Krishna,9246152798,himanirac@gmail.com,"Split AC, Cassette AC, Floor Standing, Ductable AC, Packaged AC","27, Vijaya Nagar Colony, Picket, Secunderabad, Andhra Pradesh - 500026"
Ikon Airconditioning Services,Anthony Domnic,9849021033,ikonac@yahoo.com,"Split AC, Cassette AC, Floor Standing, Ductable AC, Packaged AC","No.-6-6-37/1, Nr TVS Showroom, Secunderabad,, Kavadiguda, Hyderabad, Andhra Pradesh - 500003"
JLM Aircon,Mr. N. Murali Krishna,9849025488,jlm_aircon@yahoo.co.in,"Split AC, Cassette AC, Floor Standing, Ductable AC, Packaged AC","The High Way, 6-1-345, PADMA RAO NAGAR, Secunderabad,, Padma Rao Nagar, Hyderabad, Andhra Pradesh - 500025"
Jyothi Digital World,Y Krishna kanth,9533562699,jyothidigitalworld@hotmail.com,"Split AC, Cassette AC, Floor Standing, Ductable AC, Packaged AC","22-11-83, K.K Arcade, Bose Road, Tenali, Andhra Pradesh"
K M Cooling Systems,Sheikh Usman,9704786789,kmcoolingsystems@gmail.com,"Split AC, Cassette AC, Floor Standing, VRV, Ductable AC, Packaged AC","29-1-20, Governorpet, Seshadri Sastry Street, Vijayawada, Andhra Pradesh"
Kalyani Enterprises,Mr.U Srinivas,,"sriuppala@hotmail.com, kalyani_daikin@yahoo.co.in","Split AC, Cassette AC, Floor Standing, VRV, Ductable AC, Packaged AC","Shop No.11 &amp; 12, Madhav Plaza,, Moghal Raj Puram, Vijayawada, Andhra Pradesh - 520010"
Kim Cools,Shaik Muneer,9246439988,kimcools4@gmail.com,"Split AC, Cassette AC, Floor Standing, Ductable AC, Packaged AC","39-10-1, Anjnana Apartments, Labbipet, Vijayawada, Andhra Pradesh - 520010"
M/s Kim Cools,,,,"Split AC, Cassette AC, Floor Standing, Ductable AC, Packaged AC","Shop No-1, Anjana Appatments, Water Tank Road,, Labbipet, Vijayawada, Andhra Pradesh - 520010"
M/S Sai Agencies ,,7093038555,,"Split AC, Cassette AC, Floor Standing, Ductable AC, Packaged AC","Shop no-15&amp;16, CVR Complex, Prakasam Road,, Governorpet , Vijayawada, Andhra Pradesh - 520002"
M/s. Damayanti Engineering Systems,"Mr S. Maheshwara Rao, Mrs. Harika",,de.systems@yahoo.com,"Split AC, Cassette AC, Floor Standing, VRV, Ductable AC, Packaged AC","# 52 -1-6, Old Resapuvanipalem,, Maddilapalam, Visakhapatnam, Andhra Pradesh - 530013"
Mitas Cooling Solutions Pvt. Ltd.,Syed Yameen Hashmi,9000424387,mitascooling@gmail.com,"Split AC, Cassette AC, Floor Standing, Ductable AC, Packaged AC","1-10-72/D, Chikoti Gardens, Begumpet, Hyderabad, Andhra Pradesh - 500016"
National Aircon Projects,S Shamuddin,9848238864,shamuddin@nationalaircon.in,"Split AC, Cassette AC, Floor Standing, Ductable AC, Packaged AC","27/37/5B, Opp Old Bus Stand, Gopala Reddy Road, Vijayawada, Andhra Pradesh - 520002"
National Refrigeration,S Mansoor Ahmed,9440281043,nationalref.kdp@gmail.com,"Split AC, Cassette AC, Floor Standing, Ductable AC, Packaged AC","21/660, Govt. Hospital Road, Kadapa, Andhra Pradesh - 516001"
New Comfort Air Solutions Engineers,K C Madanamohan,9848059025,madan_mkc@yahoo.co.in,"Split AC, Cassette AC, Floor Standing, Ductable AC, Packaged AC","Dno.7-1-28/10, G-1, Rama Towers, Ameerpet, Hyderabad, Andhra Pradesh - 500016"
O.G. World,"Mrs. Yamuna Reddy, Mr. Raji Reddy",,ogworlds@gmail.com,"Split AC, Cassette AC, Floor Standing, Ductable AC, Packaged AC","6-1-89/A, Bapuji Nagar, - 20, Musheerabad, Secunderabad, Andhra Pradesh -"
OM Surya Electronics P Ltd,Sunil Jain,9849002780,omsepl@gmail.com,"Split AC, Cassette AC, Floor Standing, Ductable AC, Packaged AC","16, Model House,, Punjagutta, Hyderabad, Andhra Pradesh -"
Padma Trading Company,Padma Raju C,9849110920,priyavision@yahoo.com,"Split AC, Cassette AC, Floor Standing, Ductable AC, Packaged AC","D no. 12-1-41, Jawahar St, NR Balatripurasundari Temple, Jawahar Street, Kakinada, Andhra Pradesh - 533001"
Padmalaya Refrigeration Works &amp; Services,"K.Purnachandra Rao, Babaji",,babaji_padmalaya@yahoo.com,"Split AC, Cassette AC, Floor Standing, Ductable AC, Packaged AC","Door no.36-6-11, Near Sai Krishna Theatre, Stadium Road,, Mangalavarapupet, Rajahmundry, Andhra Pradesh - 533101"
Panchami Projects,Mr.Pardha Sarathi,8885589777,info@panchamiprojects.com,"Split AC, Cassette AC, Floor Standing, Ductable AC, Packaged AC","Plot no.309, B-41, Rain Tree, Apartments, North Phase, Malisiyan TS,, KPHB Colony, Hyderabad, Andhra Pradesh - 72"
Premier Refrigeration Enterprises,"Ms.Pushpa Gupta, Mr.Alok Gupta",9848050501,premierac@eth.net,"Split AC, Cassette AC, Floor Standing, Ductable AC, Packaged AC","5-1-907/A, Lane Opp. Osmania Medical College,, Kothi, Hyderabad, Andhra Pradesh -"
Rahul Agencies,Ms K V Jaya Lakshmi,9618396184,rahul.vasavi@rediffmail.com,"Split AC, Cassette AC, Floor Standing, Ductable AC, Packaged AC","3-1-168, UNDI Road, Bhimavaram (W), Godavari, Andhra Pradesh - 534202"
Raj Refrigerations,P C Vinod,9866672833,rajrefrigerations.nlr@gmail.com,"Split AC, Cassette AC, Floor Standing, Ductable AC, Packaged AC","No.12 N C Buildings,, Subedarpet, Nellore, Andhra Pradesh - 524001"
Ramakrishna Teletronics,,9581444056,ramakrishnacorporate@gmail.com,"Split AC, Cassette AC, Floor Standing, Ductable AC, Packaged AC","H no.6-2-976,Flat nO.601 &amp; 601A, 6th Floor, Pavani Estate,, Khairatabad, Hyderabad, Andhra Pradesh - 500004"
Ramcor,K.V S Prakash Rao,,vb@ramcorgroup.in,"Split AC, Cassette AC, Floor Standing, Ductable AC, Packaged AC","D.No. 33-21-33, Eluru Road, Seetharamapuram, Vijayawada, Andhra Pradesh - 520002"
Ramgopal Agencies,Kamal Kishore Lunani,9848162535,kklunani@yahoo.com,"Split AC, Cassette AC, Floor Standing, Ductable AC, Packaged AC","26-1-17, Temple Street, Kakinada, Andhra Pradesh - 533001"
Rapt Agencies,Suman Nandamuri,9989856789,suman@rapt.co.in,"Split AC, Cassette AC, Floor Standing, Ductable AC, Packaged AC","D.No 40-15-12, 1st Floor,Nandamuri Niyam, Nandamuri Road, Labbipet, Vijayawada, Andhra Pradesh - 520010"
Rathan Air Conditioners,Suman Kumar,9885444323,sales@rathanairconditioners.com,"Split AC, Cassette AC, Floor Standing, Ductable AC, Packaged AC","H-No:1-2-49/3/1, 2ndFloor, Beside Vijaya Bank, Nizampet Road,, Kukatpally, Hyderabad, Andhra Pradesh -"
Rathan Air Conditioners,Suman Kumar,9705020555,sales@rathanairconditioners.com,"Split AC, Cassette AC, Floor Standing, Ductable AC, Packaged AC","Shop No:1, H-No:2-1/8/2, Ground Floor, Opp: Janapriya Apartments, Near Talkie Town Theater, Miyapur, Hyderabad, Andhra Pradesh - 500049"
Reliance Digital Retail Ltd.,Phani Datla,9701300556,phani.datla@ril.com,"Split AC, Cassette AC, Floor Standing, Ductable AC, Packaged AC","NSL ICON, Plot no 1, 2, 3, 4 H. No8-2-684/2/A, opp ICICI Bank Road no-12, Banjara Hills, Hyderabad, Andhra Pradesh - 500034"
Reliance Digital Retail Ltd.,Raju Shanigaram,9989902340,raju.shanigaram@ril.com,"Split AC, Cassette AC, Floor Standing, Ductable AC, Packaged AC","Jyothi Acropolis, Municipal No. 1-7-43/220, 221, 236, 237 Besides radhika Theatre, ECIL Post, Dr. AS Rao Nagar, Hyderabad, Andhra Pradesh - 500062"
Reliance Digital Retail Ltd.,Harsh vardhan mishra,8008501416,harsh.mishra@ril.com,"Split AC, Cassette AC, Floor Standing, Ductable AC, Packaged AC","Reliancedigital Retail Ltd., Amsri Faust, 9-1-165/166/166-A, Beside Hotel Basera, S.D. Road, Secunderabad, Hyderabad, Andhra Pradesh - 500003"
Reliance Digital Retail Ltd.,Mohan Vadde,8008404239,Mohan.Vadde@zmail.ril.com,"Split AC, Cassette AC, Floor Standing, Ductable AC, Packaged AC","Ground Floor, No.73hal, MG Road, 520010-1-10/1, 73-1-13 Opp Durga Ma, Patamata, Vijayawada, Andhra Pradesh"
Reliance Digital Retail Ltd.,Aiman Ahmed,9908664001,aiman.ahmed@ril.com,"Split AC, Cassette AC, Floor Standing, Ductable AC, Packaged AC","Reliance Digital Vizag Store, First Flr CMR Mall D.No.52-1-353638, New Resapuvani Palem VIZAG, Maddilapalem, Visakhapatnam, Andhra Pradesh - 530013"
Reliance Digital Retail Ltd.,Srikar Pasumarthy,9000204176,Srikar.Pasumarthy@ril.com,"Split AC, Cassette AC, Floor Standing, Ductable AC, Packaged AC","Maram Satish Central 16-10-27/105/1 To 7 &amp; 106/1, Municipal Colony, Main Road, Malakpet, Hyderabad, Andhra Pradesh - 500036"
Reliance Digital Retail Ltd.,Sai Krishnan,,,"Split AC, Cassette AC, Floor Standing, Ductable AC, Packaged AC","RDRL Inorbit Hyd Sy No.64 Part, Inorbit Mall, Rahejas Building Madhapur, Hitec City, Hyderabad, Andhra Pradesh - 500081"
Reliance Digital Retail Ltd.,Madhu Munnar,9959555889,madhu.munnar@ril.com,"Split AC, Cassette AC, Floor Standing, Ductable AC, Packaged AC","RDRL Store, 6-11 and 6-11/1 Vijaya Sai Towers, Opp BJP offfice Vivek Nagar, Kukatpally, Hyderabad, Andhra Pradesh - 500072"
Reliance Digital Retail Ltd.,Kashi Yadav,7702661117,kashi.y.manneboina@ril.com,"Split AC, Cassette AC, Floor Standing, Ductable AC, Packaged AC","RDRL Store, Municipal No.2-2-3 Adikmet, Vidyanagar, Shivam Road, Hyderabad, Andhra Pradesh - 500044"
Reliance Digital Retail Ltd.,Nishant Shah,9959555863,nishant.shah@ril.com,"Split AC, Cassette AC, Floor Standing, Ductable AC, Packaged AC","RDRL Store, 03/03/1942 Veersavarkar Road, Kachiguda, Hyderabad, Andhra Pradesh - 500027"
Reliance Digital Retail Ltd.,Seshasudhir Pyaraka,9959555885,seshasudhir.pyaraka@ril.com,"Split AC, Cassette AC, Floor Standing, Ductable AC, Packaged AC","RDRL MPM Store, 3-6-553 to 558 &amp; 558/1, Main Road, Himayatnagar, Hyderabad, Andhra Pradesh - 500029"
Reliance Digital Retail Ltd.,Suresh Babu,9177444611,suresh.chintakutala@ril.com,"Split AC, Cassette AC, Floor Standing, Ductable AC, Packaged AC","RDRL Store, Main Rd, Beside Hundai showroom, NH-9, Madinaguda, Hyderabad, Andhra Pradesh - 500032"
Reliance Digital Retail Ltd.,Abdul Qaiyum,9177444608,mohammed.qaiyum@zmail.ril.com,"Split AC, Cassette AC, Floor Standing, Ductable AC, Packaged AC","RDRL NSL Centrum Store, S1Survey No.:-1043 &amp;1048, KBHB-1&amp;2 Phase, Kukatpally, Hyderabad, Andhra Pradesh - 500072"
Reliance Digital Retail Ltd.,JoshiKhan Pattan,9177444604,joshi.pattan@zmail.ril.com,"Split AC, Cassette AC, Floor Standing, Ductable AC, Packaged AC","RDRL Coastal Castle Bheemavaram Store, 172/5 Undli Road, West Godavarai, Bhimavaram, Andhra Pradesh - 534201"
Reliance Digital Retail Ltd.,Brahmareswari Vanapalli,8008501406,brahmareswari.vanapalli@zmail.ril.com,"Split AC, Cassette AC, Floor Standing, Ductable AC, Packaged AC","RDRL Store, House No.1-10-39 To 44, Gumidelli Commercial Complex, Airport Road, Begumpeth, Hyderabad, Andhra Pradesh - 500016"
Royal Air Conditioners,Ravathu Gopi Krishna,,ravathu@gmail.com,"Split AC, Cassette AC, Floor Standing, Ductable AC, Packaged AC","#13-2-145, Beside Rajahamsa Palace Apts., R.T.C. Bus Stand Road, (A.P.),, R.T.C Bus Stand Road, Anantapur, Andhra Pradesh - 515001"
S V Engineers,Parthasarathy,8662491155,svengineersvja@gmail.com,"Split AC, Cassette AC, Floor Standing, Ductable AC, Packaged AC","40/1/142/A, GFC, Mallika Apartments, MG Road, Vijayawada, Andhra Pradesh - 520010"
S.V.Digital,Ms Sudha,9394446437,svdigit@gmail.com,"Split AC, Cassette AC, Floor Standing, Ductable AC, Packaged AC","16/1/17, Nethaji Road, Tirupati, Andhra Pradesh - 517501"
Sai Agencies,Mr. K. Siva Rama Krishna,,saiagenciesgnt@gmail.com,"Split AC, Cassette AC, Floor Standing, VRV, Ductable AC, Packaged AC","D No.26-1-74, Sri Sai Nilayam, Main Road, Nagaram Palem, Guntur, Andhra Pradesh - 522004"
Sai Agencies,K Siva Rama Krishna,9246482555,saiagenciesgnt@gmail.com,"Split AC, Cassette AC, Floor Standing, VRV, Ductable AC, Packaged AC","D No.26-1-74, Sri Sai Nilayam, Main Road,, Nagaram Palem, Guntur, Andhra Pradesh - 522004"
Sai Sindhu Inc,A Lavanya Kumar,0866-661611,saisindhuinc@yahoo.com,"Split AC, Cassette AC, Floor Standing, Ductable AC, Packaged AC","D No.26-15-12/105, Siddhartha Apartments,,, Ram Nagar, Vijayawada, Andhra Pradesh - 520003"
Sainathan &amp; Co,Mr P Ravindra Babu,9849048666/9989511115,sainathan1939@gmail.com,"Split AC, Cassette AC, Floor Standing, Ductable AC, Packaged AC","14-1-431,Trunk Road, Trunk Road, Nellore, Andhra Pradesh - 524001"
Saravan Bhava HVAC Systems,Guntupalli Satish Kumar,9246169345,sb.hvacsystems@gmail.com,"Split AC, Cassette AC, Floor Standing, VRV, Ductable AC, Packaged AC","11 823/1/A, Near Cross Ward School, Pattabhi Seetha Ramaiah Nagar, Guntur, Andhra Pradesh - 522034"
SES AIRCON PVT. LTD.,"Ch. Sunil Chowdary, M.Jagan Mohan Reddy",,ses.aircon@gmail.com,"Split AC, Cassette AC, Floor Standing, VRV, Ductable AC, Packaged AC","52/1/3-4/2,, Veternary Colony, Vijayawada, Andhra Pradesh - 520008"
SES AIRCON PVT. LTD.,"Ch. Sunil Chowdary, Ch.Sirima",9849013637,ses.aircon@gmail.com,"Split AC, Cassette AC, Floor Standing, Ductable AC, Packaged AC","Plot no.27/B, G-1, Sumathi Apartments, Engineers Colony,, Yellareddyguda, Hyderabad, Andhra Pradesh - 500073"
SES AIRCON PVT. LTD.,Mr. Ch. Sunil Chowdary,,,"Split AC, Cassette AC, Floor Standing, Ductable AC, Packaged AC","D.NO. 12-1-15/16, Ramayya Street, Opp. Pindala Charvu,, Surya Rao Pet, Kakinada, Andhra Pradesh - 533001"
Shah Electronics &amp; Home Appliances P ltd,Neeraj Gulabray Shah,988580001,nishith@shahonline.com,"Split AC, Cassette AC, Floor Standing, Ductable AC, Packaged AC","Shop No.4-2-6, 17, 18 R P Road, Secunderabad, Andhra Pradesh"
Shree Tech Services,Mohammad Aziz,9989966786,shreetech.kodad@gmail.com,"Split AC, Cassette AC, Floor Standing, Ductable AC, Packaged AC","4-113/5/F, Opp. Govt. Hospital, Kodad, Andhra Pradesh - 508206"
Silpa Marketing,Smt. A.Silpa,9246999505,sudhakar_amilineni@yahoo.co.in,"Split AC, Cassette AC, Floor Standing, VRV, Ductable AC, Packaged AC","20-01-202(G), Korlagunta, Opp. Shridi Sai Baba Temple,, Tirumala By Pass Road, Tirupati, Andhra Pradesh"
SMR Airconditioning (Sales &amp; Service),S Maheshwar Rao,9160727272,smr3111@gmail.com,"Split AC, Cassette AC, Floor Standing, Ductable AC, Packaged AC","Shop No.3, Ist Lane, APHB Shopping Complex, Kukatpally, Hyderabad, Andhra Pradesh"
SN ECO SYATEMS,Manohar Raju,8886247000,,"Split AC, Cassette AC, Floor Standing, Ductable AC, Packaged AC","#12-113/4, Baba Nagar, Near Vijetha Super Market, PM Palem, Madhurwada, Visakhapatnam, Andhra Pradesh - 530041"
Sneha Electronics,Mr. N Hemanth Kumar,9440018190,Snehaelectronics.ongole@gmail.com,"Split AC, Cassette AC, Floor Standing, Ductable AC, Packaged AC","5/38/1 Kurnool Road Opp Power Office,, Prakasam, Ongole, Andhra Pradesh - 523002"
Sneha Electronics,Mr. Rahiman,9246464429,Snehaelectronics.ongole@gmail.com,"Split AC, Cassette AC, Floor Standing, Ductable AC, Packaged AC","Shop No 37 &amp; 38, 1 St Line, Sbmc Complex,, Prakasam, Ongole, Andhra Pradesh - 523001"
Sneha Electronics,Mr. Nageswara Rao,89594 238999,Snehaelectronics.ongole@gmail.com,"Split AC, Cassette AC, Floor Standing, Ductable AC, Packaged AC","C Mall Complex, Shopping Complex, Station Road,, Prakasam, Chirala, Andhra Pradesh - 523245"
Sneha Electronics,Mr. Srinivasa Rao,,,"Split AC, Cassette AC, Floor Standing, Ductable AC, Packaged AC","1029/s/1,, Bunglow Road, Addanki, Andhra Pradesh - 523229"
Sonovision Enterprises,Mr. Bhaskara Moorty,0866-2434216,sonovision@rediff.com,"Split AC, Cassette AC, Floor Standing, Ductable AC, Packaged AC","Eluru Road, Eluru Road, Vijayawada, Andhra Pradesh - 520002"
Sowndarya Marketing,S Gowri Chakradhar Rao,8916455229,sowndaryamarketing@gmail.com,"Split AC, Cassette AC, Floor Standing, Ductable AC, Packaged AC","D No.49-54-15/3, B.S.Layout, Seethammadhara, Visakhapatnam, Andhra Pradesh - 530013"
Sree Lakshmi Agencies,"Mr S.V.N.Ravichandra,",,srilakshmiagencies@yahoo.com,"Split AC, Cassette AC, Floor Standing, Ductable AC, Packaged AC","D. no. 22B-4-17, Shop No -3 Beside Badati Park,, G.N.T. Park, Eluru, Andhra Pradesh - 534002"
Sree Raghavendra A/C &amp; Refrigeration,Palakat Sankar Kumar,,sraghavendraac@gmail.com,"Split AC, Cassette AC, Floor Standing, Ductable AC, Packaged AC","13/519,, Vedurla Bazaar, Proddatur, Andhra Pradesh - 516360"
Sreenivasa Air Conditioners,,9849458071,sreenivasaairconditioners@gmail.com,"Split AC, Cassette AC, Floor Standing, Ductable AC, Packaged AC","Shop No 11&amp;12, Bhupal Complex, Park Road, Kurnool, Andhra Pradesh"
Sri Comfort Air Products &amp; Services,Mr. B. Kalyana Raman,9848634779,bka@sricomforts.com,"Split AC, Cassette AC, Floor Standing, Ductable AC, Packaged AC","19-10-8, Shop No. 1, Indira Nagar, AIR, Bypass Road, Tirupati, Andhra Pradesh"
Sri Comfort Air Products &amp; Services,B.Kalyanaraman,9848115471,"bkalyanaraman@yahoo.com, bka@sricomforts.com","Split AC, Cassette AC, Floor Standing, VRV, Ductable AC, Packaged AC","D-7-3-313, Vijaya Nagar Colony,, By Pass Road, Khammam, Andhra Pradesh -"
Sri Comfort Air Products &amp; Services,B.Kalyanaraman,9948898137,"bkalyanaraman@yahoo.com, bka@sricomforts.com","Split AC, Cassette AC, Floor Standing, Ductable AC, Packaged AC","19-10-8, Shop No.1, &nbsp;Indira Nagar, AIR By Pass Road,,, Annamaiah Marg, Tirupati, Andhra Pradesh - 517501"
Sri Comfort Air Products &amp; Services,,9948060599,,"Split AC, Cassette AC, Floor Standing, Ductable AC, Packaged AC","D.No.26-3-21, Opp: to anand regency, Kamdala Peta, Rajamahendravaram Urban. E.G.Dist, Rajhamundry, Andhra Pradesh - 533101"
Sri Dhanalakshmi Agencies,Ch.mahendranath,9849435678,sdltanuku@gmail.com,"Split AC, Cassette AC, Floor Standing, Ductable AC, Packaged AC","21-14-13, Main Road, Tanuku, Andhra Pradesh"
Sri Laxmi Narasimha HVAC Systems,Y Naresh Kumar,9989069430,slnarasimhahvac@gmail.com,"Split AC, Cassette AC, Floor Standing, Ductable AC, Packaged AC","H.NO:1-5-126 , Near Bharath Talkies Chowrastha , Khamana Road,, Karimnagar, Hyderabad, Andhra Pradesh - 505001"
Sri Menitha Aircon,Mr. M.V.R Ramu,,menithaaircon@gmail.com,"Split AC, Cassette AC, Floor Standing, Ductable AC, Packaged AC","12-1-15, Ramayya Street, Opp. Balatripura Sundari Temple, Suryaraopeta, Kakinada, Andhra Pradesh"
Sri Menitha Aircon,M.V.R Ramu,,acmramu@gmail.com,"Split AC, Cassette AC, Floor Standing, Ductable AC, Packaged AC","12-2-34/A, Opp. Balstripurssundari Temple, Ramayya Street, Suryarao Peta, Kakinada, Andhra Pradesh - 533001"
Sri Rama Marketing,Mr. S Mrutyanjaya Rao,9849984477,"srmho@yahoo.com, <br>sriramamarketing@yahoo.co.in","Split AC, Cassette AC, Floor Standing, Ductable AC, Packaged AC","D.No. 49-54-15/3/3, III Floor, Balayyasastry Layout,, Seethammadhara, Visakhapatnam, Andhra Pradesh - 530013"
Sri Sai Agencies,D Satya Srinivas Rao,9866661665,saiagenciesamp@gmail.com,"Split AC, Cassette AC, Floor Standing, Ductable AC, Packaged AC","7/2/44,, Ummidivaram Gate, Amalapuram, Andhra Pradesh - 533201"
Sri Sai Weather System,S.Shyam Sundar,9848051404,shyam-262@yahoo.com,"Split AC, Cassette AC, Floor Standing, Ductable AC, Packaged AC","7-1-65/3 SBI Colony, Dharam Karan Road, Ameerpet, Hyderabad, Andhra Pradesh - 500016"
Sri Sampath Vinayaka Agencies,Mr. A Pradeep Kumar,,deepuannepu@gmail.com,"Split AC, Cassette AC, Floor Standing, Ductable AC, Packaged AC","4-4-96, Nanubala Street, Near Income Tax Office, Srikakulam, Nanubala Street, Srikakulam, Andhra Pradesh"
Sri Satya Sai Refrigeration &amp; Air Conditioner Works,Mr.Dharanidhar Rao Kulakarni,9885079564,dharanikulakarni@yahoo.co.in,"Split AC, Cassette AC, Floor Standing, Ductable AC, Packaged AC","Shop no.13, Shilpi Chaitanya Towers, Behind Food World,,, Chaitanyapuri, Hyderabad, Andhra Pradesh - 500060"
Sri Vaishanavi Aircon,B Sudheer Kumar,9866696709,kishorkng@gmail.com,"Split AC, Cassette AC, Floor Standing, Ductable AC, Packaged AC","Shop No:28, Shutter No: G26, Krishnakanth Plz, Birla Compound, Kurnool, Andhra Pradesh - 518002"
Srinivasa Enterprises,Mr.T.Gopal,9848969620,salesadmin@srinivasaengg.com,"Split AC, Cassette AC, Floor Standing, Ductable AC, Packaged AC","126/A, II Floor, Thirmula Complex, S.D.Road,, S.D. Road, Secunderabad, Andhra Pradesh - 500003"
Srinu Refrigeration Works,Mr.G.Srinivasa Rao,,lgsring_2006@yahoo.co.in,"Split AC, Cassette AC, Floor Standing, VRV, Ductable AC, Packaged AC","D/no. 46-13-35/1, Dondaparthy, Back side of Bata Show Room,, Vizag, Visakhapatnam, Andhra Pradesh -"
SRR E City,Mr.SVR Mohan Rao,9618279453,"srrgroup@rediffmail.com, <br>srrecity@gmail.com","Split AC, Cassette AC, Floor Standing, Ductable AC, Packaged AC","29-13-125, 126, Museum Road, Vijayawada, Andhra Pradesh - 520002"
Universal Refrigeration &amp; A.C. Works,Mr.M.Madhava Reddy,,universalrac@gmail.com,"Split AC, Cassette AC, Floor Standing, Ductable AC, Packaged AC","10-3-138A/3, (Beside Srinivasa Theatre),, T.K. Street, Tirupati, Andhra Pradesh - 517501"
Vignesh Refac Co,Ms Indu Jain,9849122570,vigneshrefacco@yahoo.in,"Split AC, Cassette AC, Floor Standing, Ductable AC, Packaged AC","46-20-84, Mandavari Street,, Dondaparthi Junction, Visakhapatnam, Andhra Pradesh - 16"
Vijay TV &amp; Video Home,"Javvadi. Gangadhara Rao, Javvadi. Rahul",9885555559,accounts@vtvh.in,"Split AC, Cassette AC, Floor Standing, Ductable AC, Packaged AC","14, Revenue Complex, (A.P.), Jinnah Tower Centre, Guntur, Andhra Pradesh - 522001"
Vimsons Enterprises,"K.R. Ravindranath, K.R. Ramana",,vimsonsramana@gmail.com,"Split AC, Cassette AC, Floor Standing, Ductable AC, Packaged AC","18-941,, High Road, Chittoor, Andhra Pradesh - 517001"
VTS Cooling Systems,M Mohan Rao,9848899336,vtscoolingsystems@yahoo.com,"Split AC, Cassette AC, Floor Standing, Ductable AC, Packaged AC","8-3-315/3/1, Maruthi Nagar, Yusufguda, Hyderabad, Andhra Pradesh"
Why Not,Venkata Rayudu Jujjavarapu,,whynot.tanuku@gmail.com,"Split AC, Cassette AC, Floor Standing, Ductable AC, Packaged AC","Near Sai Lakshmi Theatre, Rajamundhry, Rajahmundry, Andhra Pradesh"
